LEMUR-2-HUBBLE-4        
1 64565U 25135AP  26196.87807392  .00000792  00000+0  80239-4 0  9993
2 64565  97.7720 310.4520 0002725 160.3081 199.8244 14.93687144 58153
LEMUR-2-SEJONG-2        
1 64586U 25135BL  26196.91673510  .00002107  00000+0  18859-3 0  9994
2 64586  97.7709 311.7477 0004006 215.3704 144.7252 14.96914863 58247
LEMUR-2-HUBBLE-5        
1 64840U 25135BT  26196.88666765  .00000584  00000+0  59795-4 0  9999
2 64840  97.7741 311.1302 0004355 232.4471 127.6353 14.94214757 58194
LEMUR-2-KARENDARRELL    
1 64841U 25135BU  26196.79663076  .00004305  00000+0  34587-3 0  9998
2 64841  97.7719 312.9676 0012499 102.9205 257.3415 15.00505264 58304
LEMUR-2-LUCILLE-ROSE    
1 65403U 25135BV  26196.90346072  .00003315  00000+0  26742-3 0  9994
2 65403  97.7712 313.1096 0014989 186.8472 173.2549 15.00493417 52948
LEMUR-2-AFFIE-WAUWIE    
1 66295U 25248C   26196.36935946  .00012792  00000+0  46577-3 0  9990
2 66295  45.3887 322.1687 0008766 251.4181 108.5756 15.28256430 38901
OTTER SDM               
1 66678U 25276N   26196.16317339  .00003557  00000+0  16803-3 0  9992
2 66678  97.4206 269.1787 0004295 254.0411 106.0351 15.20056680 34668
LEMUR-2-STAS-GORBUK     
1 66686U 25276W   26196.18459675  .00002841  00000+0  13639-3 0  9992
2 66686  97.4240 269.2517 0003613 248.2139 111.8711 15.19658337 34661
LEMUR-2-TEODOR          
1 66768U 25276DG  26196.72957459  .00003124  00000+0  14257-3 0  9998
2 66768  97.4144 270.0602 0002203  87.3705 272.7783 15.21341179 34780
LEMUR-2-LAILA           
1 66776U 25276DQ  26196.76506091  .00003082  00000+0  13978-3 0  9995
2 66776  97.4167 270.2341 0002934  93.5101 266.6471 15.21566764 34792
LEMUR-2-CELIJO-SB-PK    
1 66781U 25276DW  26196.18488121  .00002627  00000+0  21423-3 0  9998
2 66781  97.5197 266.0383 0007030  64.1114 296.0834 15.00282855 26829
LEMUR-2-FINNIAN         
1 66782U 25276DX  26196.15516365  .00001567  00000+0  12854-3 0  9998
2 66782  97.5350 266.2766 0007355   0.2021 359.9204 15.00617476 24195
LEMUR-2-STARLIGHT       
1 66783U 25276DY  26196.73636343  .00003931  00000+0  32538-3 0  9990
2 66783  97.5237 266.3990 0014703  45.9551 314.2881 14.99359751 34472
LEMUR-2-TARTIFLETTE     
1 66784U 25276DZ  26196.73476973  .00003547  00000+0  29425-3 0  9996
2 66784  97.5233 266.4060 0013932  54.0986 306.1528 14.99344051 34479
LEMUR-2-VUKASIN         
1 66785U 25276EA  26196.43795814  .00002479  00000+0  20106-3 0  9992
2 66785  97.5225 266.4784 0003009  54.6236 305.5269 15.00547816 34384
LEMUR-2-HOTSPUR-TOM     
1 66786U 25276EB  26196.72920694  .00003070  00000+0  25595-3 0  9996
2 66786  97.5218 266.3745 0013770  45.5113 314.7234 14.99244890 34402
